[
  {
    "OBJECT_NAME": "SZ-21 MODULE",
    "OBJECT_ID": "2025-246C",
    "EPOCH": "2026-04-05T13:00:16.474176",
    "MEAN_MOTION": 15.70809155,
    "ECCENTRICITY": 0.0003531,
    "INCLINATION": 41.4755,
    "RA_OF_ASC_NODE": 37.8006,
    "ARG_OF_PERICENTER": 233.2393,
    "MEAN_ANOMALY": 126.8126,
    "EPHEMERIS_TYPE": 0,
    "CLASSIFICATION_TYPE": "U",
    "NORAD_CAT_ID": 66515,
    "ELEMENT_SET_NO": 999,
    "REV_AT_EPOCH": 2229,
    "BSTAR": 0.00035049,
    "MEAN_MOTION_DOT": 0.0004484,
    "MEAN_MOTION_DDOT": 0
  },
  {
    "OBJECT_NAME": "SHENZHOU-22",
    "OBJECT_ID": "2025-272A",
    "EPOCH": "2026-04-05T21:35:59.578368",
    "MEAN_MOTION": 15.61975413,
    "ECCENTRICITY": 0.00036451,
    "INCLINATION": 41.4683,
    "RA_OF_ASC_NODE": 42.4237,
    "ARG_OF_PERICENTER": 135.7211,
    "MEAN_ANOMALY": 224.3921,
    "EPHEMERIS_TYPE": 0,
    "CLASSIFICATION_TYPE": "U",
    "NORAD_CAT_ID": 66645,
    "ELEMENT_SET_NO": 999,
    "REV_AT_EPOCH": 28115,
    "BSTAR": 0.00033282638,
    "MEAN_MOTION_DOT": 0.00029649,
    "MEAN_MOTION_DDOT": 0
  },
  {
    "OBJECT_NAME": "SOYUZ-MS 28",
    "OBJECT_ID": "2025-275A",
    "EPOCH": "2026-04-05T19:28:26.282784",
    "MEAN_MOTION": 15.48791307,
    "ECCENTRICITY": 0.00063547,
    "INCLINATION": 51.6329,
    "RA_OF_ASC_NODE": 298.2672,
    "ARG_OF_PERICENTER": 276.3215,
    "MEAN_ANOMALY": 83.7049,
    "EPHEMERIS_TYPE": 0,
    "CLASSIFICATION_TYPE": "U",
    "NORAD_CAT_ID": 66664,
    "ELEMENT_SET_NO": 999,
    "REV_AT_EPOCH": 56050,
    "BSTAR": 0.00015990409,
    "MEAN_MOTION_DOT": 8.309e-5,
    "MEAN_MOTION_DDOT": 0
  },
  {
    "OBJECT_NAME": "DUPLEX",
    "OBJECT_ID": "1998-067XS",
    "EPOCH": "2026-04-05T20:41:24.162144",
    "MEAN_MOTION": 15.58090473,
    "ECCENTRICITY": 0.00034071,
    "INCLINATION": 51.6286,
    "RA_OF_ASC_NODE": 293.3557,
    "ARG_OF_PERICENTER": 242.5355,
    "MEAN_ANOMALY": 117.5291,
    "EPHEMERIS_TYPE": 0,
    "CLASSIFICATION_TYPE": "U",
    "NORAD_CAT_ID": 66906,
    "ELEMENT_SET_NO": 999,
    "REV_AT_EPOCH": 1936,
    "BSTAR": 0.00040797926,
    "MEAN_MOTION_DOT": 0.000309,
    "MEAN_MOTION_DDOT": 0
  },
  {
    "OBJECT_NAME": "ISS OBJECT XT",
    "OBJECT_ID": "1998-067XT",
    "EPOCH": "2026-04-05T19:32:05.160768",
    "MEAN_MOTION": 15.81038991,
    "ECCENTRICITY": 0.00076267,
    "INCLINATION": 51.6217,
    "RA_OF_ASC_NODE": 286.2314,
    "ARG_OF_PERICENTER": 257.9679,
    "MEAN_ANOMALY": 102.0469,
    "EPHEMERIS_TYPE": 0,
    "CLASSIFICATION_TYPE": "U",
    "NORAD_CAT_ID": 66907,
    "ELEMENT_SET_NO": 999,
    "REV_AT_EPOCH": 1945,
    "BSTAR": 0.0015655189,
    "MEAN_MOTION_DOT": 0.00323618,
    "MEAN_MOTION_DDOT": 0
  },
  {
    "OBJECT_NAME": "ISS OBJECT XU",
    "OBJECT_ID": "1998-067XU",
    "EPOCH": "2026-04-05T19:24:22.597632",
    "MEAN_MOTION": 15.81429806,
    "ECCENTRICITY": 0.00078041,
    "INCLINATION": 51.6224,
    "RA_OF_ASC_NODE": 286.1921,
    "ARG_OF_PERICENTER": 256.8765,
    "MEAN_ANOMALY": 103.1367,
    "EPHEMERIS_TYPE": 0,
    "CLASSIFICATION_TYPE": "U",
    "NORAD_CAT_ID": 66908,
    "ELEMENT_SET_NO": 999,
    "REV_AT_EPOCH": 1945,
    "BSTAR": 0.001509068,
    "MEAN_MOTION_DOT": 0.00317413,
    "MEAN_MOTION_DDOT": 0
  },
  {
    "OBJECT_NAME": "SILVERSAT",
    "OBJECT_ID": "1998-067XV",
    "EPOCH": "2026-04-05T17:32:03.770016",
    "MEAN_MOTION": 15.89127269,
    "ECCENTRICITY": 0.00094404,
    "INCLINATION": 51.618,
    "RA_OF_ASC_NODE": 284.8979,
    "ARG_OF_PERICENTER": 264.4078,
    "MEAN_ANOMALY": 95.5851,
    "EPHEMERIS_TYPE": 0,
    "CLASSIFICATION_TYPE": "U",
    "NORAD_CAT_ID": 66909,
    "ELEMENT_SET_NO": 999,
    "REV_AT_EPOCH": 1946,
    "BSTAR": 0.0017461776,
    "MEAN_MOTION_DOT": 0.00511697,
    "MEAN_MOTION_DDOT": 0.00010942221
  },
  {
    "OBJECT_NAME": "ISS OBJECT XW",
    "OBJECT_ID": "1998-067XW",
    "EPOCH": "2026-04-05T18:24:10.108224",
    "MEAN_MOTION": 15.78843649,
    "ECCENTRICITY": 0.0007677,
    "INCLINATION": 51.6196,
    "RA_OF_ASC_NODE": 286.6599,
    "ARG_OF_PERICENTER": 253.02,
    "MEAN_ANOMALY": 106.9959,
    "EPHEMERIS_TYPE": 0,
    "CLASSIFICATION_TYPE": "U",
    "NORAD_CAT_ID": 66910,
    "ELEMENT_SET_NO": 999,
    "REV_AT_EPOCH": 1944,
    "BSTAR": 0.0014295084,
    "MEAN_MOTION_DOT": 0.0026546,
    "MEAN_MOTION_DDOT": 0
  },
  {
    "OBJECT_NAME": "ISS OBJECT XX",
    "OBJECT_ID": "1998-067XX",
    "EPOCH": "2026-04-05T18:05:22.153632",
    "MEAN_MOTION": 16.01632842,
    "ECCENTRICITY": 0.00120608,
    "INCLINATION": 51.6135,
    "RA_OF_ASC_NODE": 282.7499,
    "ARG_OF_PERICENTER": 272.1994,
    "MEAN_ANOMALY": 87.7635,
    "EPHEMERIS_TYPE": 0,
    "CLASSIFICATION_TYPE": "U",
    "NORAD_CAT_ID": 66911,
    "ELEMENT_SET_NO": 999,
    "REV_AT_EPOCH": 1948,
    "BSTAR": 0.0021130794,
    "MEAN_MOTION_DOT": 0.01217551,
    "MEAN_MOTION_DDOT": 0.00079991624
  },
  {
    "OBJECT_NAME": "ISS OBJECT XY",
    "OBJECT_ID": "1998-067XY",
    "EPOCH": "2026-04-05T19:43:11.966592",
    "MEAN_MOTION": 15.69823635,
    "ECCENTRICITY": 0.000529,
    "INCLINATION": 51.6244,
    "RA_OF_ASC_NODE": 289.3172,
    "ARG_OF_PERICENTER": 250.7234,
    "MEAN_ANOMALY": 109.3192,
    "EPHEMERIS_TYPE": 0,
    "CLASSIFICATION_TYPE": "U",
    "NORAD_CAT_ID": 66912,
    "ELEMENT_SET_NO": 999,
    "REV_AT_EPOCH": 1940,
    "BSTAR": 0.0011567595,
    "MEAN_MOTION_DOT": 0.0014297,
    "MEAN_MOTION_DDOT": 0
  },
  {
    "OBJECT_NAME": "KNACKSAT-2",
    "OBJECT_ID": "1998-067XZ",
    "EPOCH": "2026-04-05T19:39:15.500160",
    "MEAN_MOTION": 15.54247427,
    "ECCENTRICITY": 0.00108398,
    "INCLINATION": 51.6317,
    "RA_OF_ASC_NODE": 296.8195,
    "ARG_OF_PERICENTER": 286.1763,
    "MEAN_ANOMALY": 73.8034,
    "EPHEMERIS_TYPE": 0,
    "CLASSIFICATION_TYPE": "U",
    "NORAD_CAT_ID": 67683,
    "ELEMENT_SET_NO": 999,
    "REV_AT_EPOCH": 900,
    "BSTAR": 0.00071168493,
    "MEAN_MOTION_DOT": 0.00047225,
    "MEAN_MOTION_DDOT": 0
  },
  {
    "OBJECT_NAME": "CORAL",
    "OBJECT_ID": "1998-067YA",
    "EPOCH": "2026-04-05T17:27:30.822048",
    "MEAN_MOTION": 15.59362518,
    "ECCENTRICITY": 0.00137279,
    "INCLINATION": 51.6287,
    "RA_OF_ASC_NODE": 296.2079,
    "ARG_OF_PERICENTER": 276.4839,
    "MEAN_ANOMALY": 83.4591,
    "EPHEMERIS_TYPE": 0,
    "CLASSIFICATION_TYPE": "U",
    "NORAD_CAT_ID": 67684,
    "ELEMENT_SET_NO": 999,
    "REV_AT_EPOCH": 900,
    "BSTAR": 0.0012984401,
    "MEAN_MOTION_DOT": 0.00105757,
    "MEAN_MOTION_DDOT": 0
  },
  {
    "OBJECT_NAME": "GXIBA-1",
    "OBJECT_ID": "1998-067YB",
    "EPOCH": "2026-04-05T22:25:34.925664",
    "MEAN_MOTION": 15.54903077,
    "ECCENTRICITY": 0.00125884,
    "INCLINATION": 51.6301,
    "RA_OF_ASC_NODE": 296.0905,
    "ARG_OF_PERICENTER": 283.5726,
    "MEAN_ANOMALY": 76.3862,
    "EPHEMERIS_TYPE": 0,
    "CLASSIFICATION_TYPE": "U",
    "NORAD_CAT_ID": 67685,
    "ELEMENT_SET_NO": 999,
    "REV_AT_EPOCH": 902,
    "BSTAR": 0.00072086847,
    "MEAN_MOTION_DOT": 0.00049066,
    "MEAN_MOTION_DDOT": 0
  }
]
